CYGFM04                 
1 41885U 16078B   24280.48900163  .00026410  00000+0  83902-3 0  9992
2 41885  34.9399 297.6639 0010224 161.8413 198.2670 15.31648322433222
CYGFM02                 
1 41886U 16078C   24280.48863195  .00026292  00000+0  82438-3 0  9997
2 41886  34.9487 299.6400 0012747 150.3894 209.7546 15.32039843433310
CYGFM01                 
1 41887U 16078D   24280.50243280  .00025172  00000+0  83137-3 0  9991
2 41887  34.9466 318.6843 0011540 127.4819 232.6948 15.30397570433057
CYGFM08                 
1 41888U 16078E   24280.51495312  .00026367  00000+0  84211-3 0  9999
2 41888  34.9508 305.7276 0013096 150.4132 209.7328 15.31447260433278
CYGFM07                 
1 41890U 16078G   24280.46741214  .00026607  00000+0  84043-3 0  9991
2 41890  34.9521 297.1370 0011347 165.5389 194.5654 15.31820229433232
CYGFM03                 
1 41891U 16078H   24280.44452798  .00027514  00000+0  87284-3 0  9994
2 41891  34.9465 298.5680 0009730 153.8460 206.2749 15.31693788433214
FENGYUN 3D              
1 43010U 17072A   24280.54267223  .00000743  00000+0  37447-3 0  9993
2 43010  98.9243 235.9169 0002233  45.8575 314.2783 14.19448748357210
NOAA 20 (JPSS-1)        
1 43013U 17073A   24280.56580522  .00000586  00000+0  29870-3 0  9995
2 43013  98.7130 216.6440 0000333 186.1833 173.9339 14.19528724356702
GOES 17                 
1 43226U 18022A   24280.52118553 -.00000080  00000+0  00000+0 0  9993
2 43226   0.0437  36.4826 0002518 183.4847 238.6442  1.00272135 24223
FENGYUN 2H              
1 43491U 18050A   24280.53382618 -.00000117  00000+0  00000+0 0  9995
2 43491   1.4268  86.1995 0001506 117.0226  83.9720  1.00269332 23238
METOP-C                 
1 43689U 18087A   24280.56679587  .00000769  00000+0  37122-3 0  9992
2 43689  98.7112 338.4754 0002643 114.4636 245.6818 14.21500439306949
GEO-KOMPSAT-2A          
1 43823U 18100A   24275.91955569 -.00000346  00000+0  00000+0 0  9991
2 43823   0.0107  73.8341 0001337  54.5662 342.0259  1.00265185 21385
METEOR-M2 2             
1 44387U 19038A   24280.52466741  .00001040  00000+0  47250-3 0  9993
2 44387  98.8418 250.2630 0001820  41.6994 318.4323 14.24005117273234
ARKTIKA-M 1             
1 47719U 21016A   24279.91361478  .00000097  00000+0  00000+0 0  9995
2 47719  63.1331 138.9211 6981860 268.5280  17.6965  2.00614635 26369
FENGYUN 3E              
1 49008U 21062A   24280.55448401  .00000250  00000+0  13859-3 0  9994
2 49008  98.7384 280.3696 0002688  79.0880 281.0598 14.19795122168797
GOES 18                 
1 51850U 22021A   24280.60842061  .00000108  00000+0  00000+0 0  9996
2 51850   0.0191 330.8527 0000311 287.0607 199.9104  1.00274009   393
NOAA 21 (JPSS-2)        
1 54234U 22150A   24280.53220600  .00000699  00000+0  35227-3 0  9997
2 54234  98.7585 217.1454 0001563 125.9304 234.2018 14.19527311 98770
METEOSAT-12 (MTG-I1)    
1 54743U 22170C   24280.32735539  .00000005  00000+0  00000+0 0  9991
2 54743   0.5883  42.0640 0001951 103.7573 347.2177  1.00272752  6774
TIANMU-1 03             
1 55973U 23039A   24280.54755616  .00025553  00000+0  99347-3 0  9995
2 55973  97.4808  70.7934 0005306 142.6113 217.5495 15.26012332 85819
TIANMU-1 04             
1 55974U 23039B   24280.58910120  .00026301  00000+0  10182-2 0  9994
2 55974  97.4731  70.2986 0006319 140.5956 219.5742 15.26143027 85817
TIANMU-1 05             
1 55975U 23039C   24280.58029886  .00026689  00000+0  10376-2 0  9999
2 55975  97.4778  70.6711 0004756 159.4140 200.7291 15.26007668 85806
TIANMU-1 06             
1 55976U 23039D   24280.54919785  .00025790  00000+0  99572-3 0  9990
2 55976  97.4793  70.8116 0005309 157.4923 202.6549 15.26242607 85808
METEOR-M2 3             
1 57166U 23091A   24280.56161495  .00000245  00000+0  12606-3 0  9991
2 57166  98.7003 334.1716 0004435 153.5231 206.6175 14.23933468 66478
TIANMU-1 07             
1 57399U 23101A   24280.55169137  .00017557  00000+0  82802-3 0  9990
2 57399  97.3499 334.6620 0005852 145.5265 214.6350 15.19520640 67320
TIANMU-1 08             
1 57400U 23101B   24280.58642095  .00017017  00000+0  80252-3 0  9993
2 57400  97.3486 334.5543 0007769 154.5222 205.6398 15.19517555 67327
TIANMU-1 09             
1 57401U 23101C   24280.56843781  .00018558  00000+0  87311-3 0  9991
2 57401  97.3442 334.3156 0008266 151.0596 209.1098 15.19577066 67326
TIANMU-1 10             
1 57402U 23101D   24280.53596212  .00017467  00000+0  82207-3 0  9990
2 57402  97.3523 334.6738 0010400 151.8018 208.3782 15.19559953 67311
FENGYUN 3F              
1 57490U 23111A   24280.50230653  .00000576  00000+0  29211-3 0  9998
2 57490  98.7591 348.5550 0001855 110.4743 249.6632 14.19898487 61069
ARKTIKA-M 2             
1 58584U 23198A   24280.14556351  .00000110  00000+0  00000+0 0  9999
2 58584  63.2450 222.6805 6939010 269.6616  17.5882  2.00611871  5902
TIANMU-1 11             
1 58645U 23205A   24280.53559913  .00015132  00000+0  76248-3 0  9997
2 58645  97.3972 302.8606 0011715  27.5472 332.6381 15.17202221 43381
TIANMU-1 12             
1 58646U 23205B   24280.48409690  .00016311  00000+0  82293-3 0  9995
2 58646  97.3955 302.7227 0009515  24.1789 335.9889 15.17160109 43365
TIANMU-1 13             
1 58647U 23205C   24280.51773103  .00015406  00000+0  77570-3 0  9999
2 58647  97.3986 302.7907 0009280   7.0232 353.1130 15.17246808 43369
TIANMU-1 14             
1 58648U 23205D   24280.50158976  .00015079  00000+0  75934-3 0  9992
2 58648  97.3910 302.5312 0010092   8.9739 351.1673 15.17239852 43361
TIANMU-1 19             
1 58660U 23208A   24280.56970862  .00020122  00000+0  10095-2 0  9992
2 58660  97.4180  30.3750 0006015 344.6442  15.4608 15.17338479 43046
TIANMU-1 20             
1 58661U 23208B   24280.57079733  .00019803  00000+0  95823-3 0  9998
2 58661  97.4113  30.4032 0009028 354.2247   5.8882 15.18585008 43066
TIANMU-1 21             
1 58662U 23208C   24280.55710342  .00021582  00000+0  10102-2 0  9998
2 58662  97.4149  30.8704 0008593 353.4971   6.6151 15.19721985 43084
TIANMU-1 22             
1 58663U 23208D   24280.58039123  .00019298  00000+0  95933-3 0  9990
2 58663  97.4171  30.4562 0004848  13.0768 347.0591 15.17673735 43054
TIANMU-1 15             
1 58700U 24004A   24280.56424306  .00016585  00000+0  83162-3 0  9993
2 58700  97.4640  99.7915 0010129  33.0435 327.1430 15.17369132 41646
TIANMU-1 16             
1 58701U 24004B   24280.54433651  .00015931  00000+0  79801-3 0  9994
2 58701  97.4565  99.5522 0010198  38.3034 321.8922 15.17412503 41642
TIANMU-1 17             
1 58702U 24004C   24280.53148543  .00016329  00000+0  81924-3 0  9998
2 58702  97.4606  99.7262 0008017  34.4206 325.7546 15.17369823 41637
TIANMU-1 18             
1 58703U 24004D   24280.58020178  .00016610  00000+0  83404-3 0  9995
2 58703  97.4625  99.8704 0007163  26.1039 334.0554 15.17341967 41646
INSAT-3DS               
1 58990U 24033A   24280.53382618 -.00000145  00000+0  00000+0 0  9994
2 58990   0.0163 166.4725 0001435  24.0799  99.3921  1.00273068 40866
METEOR-M2 4             
1 59051U 24039A   24280.57062568  .00000338  00000+0  17150-3 0  9993
2 59051  98.6122 239.7917 0007413 153.0562 207.1002 14.22277678 31322
GOES 19                 
1 60133U 24119A   24280.52422635 -.00000171  00000+0  00000+0 0  9993
2 60133   0.0413  32.9950 0001318  66.0229  15.9131  1.00271496   762
SOYUZ-MS 26             
1 61043U 24162A   24280.43698790  .00029222  00000+0  53024-3 0  9994
2 61043  51.6366 124.3540 0009156  42.1290 318.0401 15.49302596475503
SPACEMOBILE-003         
1 61045U 24163A   24280.47657505  .00006189  00000+0  32219-3 0  9990
2 61045  52.9770 271.6255 0013626  34.8989 325.2894 15.17239454  3664
SPACEMOBILE-005         
1 61046U 24163B   24280.47294570  .00006458  00000+0  33326-3 0  9999
2 61046  52.9783 271.6115 0014243  39.0740 321.1278 15.17468712  3653
SPACEMOBILE-001         
1 61047U 24163C   24280.34049681  .00007031  00000+0  36096-3 0  9992
2 61047  52.9748 272.1910 0014047  39.3330 320.8681 15.17514677  3638
SPACEMOBILE-002         
1 61048U 24163D   24280.33633861  .00007769  00000+0  39422-3 0  9995
2 61048  52.9779 272.1736 0013416  42.7515 317.4519 15.17782764  3637
SPACEMOBILE-004         
1 61049U 24163E   24280.33363728  .00014700  00000+0  72716-3 0  9994
2 61049  52.9778 272.1632 0013827  47.4289 312.7869 15.17971496  3636
STARLINK-11286 [DTC]    
1 61050U 24164A   24280.49472441  .00096387  00000+0  58584-3 0  9995
2 61050  53.1571 351.4456 0001079  67.8597 292.2538 15.76744618  3860
STARLINK-11252 [DTC]    
1 61051U 24164B   24280.48984589  .00131388  00000+0  79072-3 0  9992
2 61051  53.1569 351.4111 0002027 103.2651 256.8596 15.76833331  3867
STARLINK-11284 [DTC]    
1 61052U 24164C   24280.54834391  .00018635  00000+0  11775-3 0  9990
2 61052  53.1562 351.0634 0001290  47.2647 312.8482 15.76700224  3872
STARLINK-11230 [DTC]    
1 61053U 24164D   24280.48007374  .00220216  00000+0  13125-2 0  9997
2 61053  53.1554 351.3471 0000738  65.1486 294.9612 15.76770326  3866
STARLINK-11294 [DTC]    
1 61054U 24164E   24280.47519008  .00109747  00000+0  66505-3 0  9995
2 61054  53.1556 351.3149 0001052 127.5563 232.5554 15.76758079  3864
STARLINK-11268 [DTC]    
1 61055U 24164F   24280.47030310  .00199134  00000+0  11940-2 0  9991
2 61055  53.1561 351.2834 0001076  70.1408 289.9729 15.76698287  3862
STARLINK-11156 [DTC]    
1 61056U 24164G   24280.46542427  .00016496  00000+0  10470-3 0  9995
2 61056  53.1562 351.2512 0000567   0.6034 359.4987 15.76704075  3866
STARLINK-11231 [DTC]    
1 61057U 24164H   24280.58334491 -.01037068  00000+0 -89214-2 0  9991
2 61057  53.1607 350.6549 0001176  59.7603 254.3512 15.71220728  4843
